{"type": "FeatureCollection", "features": [{"type": "Feature", "properties": {"norad_id": 2807, "name": "OPS 7218 (TRANSIT 16)", "group": "nnss", "lat": -77.72343356107906, "lon": -7.781349632674537, "alt_km": 1093.1927071576738, "timestamp": "2025-12-21T14:40:48.185053+00:00", "meta": {"OBJECT_NAME": "OPS 7218 (TRANSIT 16)", "OBJECT_ID": "1967-048A", "EPOCH": "2025-12-21T06:13:50.404224", "MEAN_MOTION": 13.50723989, "ECCENTRICITY": 0.0022159, "INCLINATION": 89.6731, "RA_OF_ASC_NODE": 353.7336, "ARG_OF_PERICENTER": 91.3686, "MEAN_ANOMALY": 280.0841, "EPHEMERIS_TYPE": 0, "CLASSIFICATION_TYPE": "U", "NORAD_CAT_ID": 2807, "ELEMENT_SET_NO": 999, "REV_AT_EPOCH": 88391, "BSTAR": 0.00015011834, "MEAN_MOTION_DOT": 1.07e-06, "MEAN_MOTION_DDOT": 0}, "tle": {"line1": "1 02807U 67048A   25355.25961116  .00000107  00000+0  15012-3 0  9992", "line2": "2 02807  89.6731 353.7336 0022159  91.3686 280.0841 13.50723989883914"}}, "geometry": {"type": "Point", "coordinates": [-7.781349632674537, -77.72343356107906]}}, {"type": "Feature", "properties": {"norad_id": 2965, "name": "OPS 4947 (TRANSIT 17)", "group": "nnss", "lat": 73.54697232585323, "lon": 26.30534883399718, "alt_km": 1076.96077881359, "timestamp": "2025-12-21T14:40:48.185075+00:00", "meta": {"OBJECT_NAME": "OPS 4947 (TRANSIT 17)", "OBJECT_ID": "1967-092A", "EPOCH": "2025-12-21T04:00:48.652128", "MEAN_MOTION": 13.53455665, "ECCENTRICITY": 0.00467789, "INCLINATION": 89.2487, "RA_OF_ASC_NODE": 23.7927, "ARG_OF_PERICENTER": 209.4251, "MEAN_ANOMALY": 220.3395, "EPHEMERIS_TYPE": 0, "CLASSIFICATION_TYPE": "U", "NORAD_CAT_ID": 2965, "ELEMENT_SET_NO": 999, "REV_AT_EPOCH": 87211, "BSTAR": 0.00018220255, "MEAN_MOTION_DOT": 1.34e-06, "MEAN_MOTION_DDOT": 0}, "tle": {"line1": "1 02965U 67092A   25355.16722977  .00000134  00000+0  18220-3 0  9990", "line2": "2 02965  89.2487  23.7927 0046778 209.4251 220.3395 13.53455665872113"}}, "geometry": {"type": "Point", "coordinates": [26.30534883399718, 73.54697232585323]}}, {"type": "Feature", "properties": {"norad_id": 3133, "name": "OPS 7034 (TRANSIT 18)", "group": "nnss", "lat": 16.680877281635876, "lon": 93.6725958247895, "alt_km": 1014.648569875757, "timestamp": "2025-12-21T14:40:48.185090+00:00", "meta": {"OBJECT_NAME": "OPS 7034 (TRANSIT 18)", "OBJECT_ID": "1968-012A", "EPOCH": "2025-12-21T07:19:02.712864", "MEAN_MOTION": 13.51567649, "ECCENTRICITY": 0.00746678, "INCLINATION": 90.0284, "RA_OF_ASC_NODE": 273.6632, "ARG_OF_PERICENTER": 144.4691, "MEAN_ANOMALY": 326.6816, "EPHEMERIS_TYPE": 0, "CLASSIFICATION_TYPE": "U", "NORAD_CAT_ID": 3133, "ELEMENT_SET_NO": 999, "REV_AT_EPOCH": 57034, "BSTAR": 0.00018631671, "MEAN_MOTION_DOT": 1.33e-06, "MEAN_MOTION_DDOT": 0}, "tle": {"line1": "1 03133U 68012A   25355.30489251  .00000133  00000+0  18632-3 0  9998", "line2": "2 03133  90.0284 273.6632 0074667 144.4691 326.6816 13.51567649570341"}}, "geometry": {"type": "Point", "coordinates": [93.6725958247895, 16.680877281635876]}}, {"type": "Feature", "properties": {"norad_id": 4507, "name": "NNSS 19 (TRANSIT 19)", "group": "nnss", "lat": 54.764567233328215, "lon": 54.547020755378966, "alt_km": 1161.715422800351, "timestamp": "2025-12-21T14:40:48.185102+00:00", "meta": {"OBJECT_NAME": "NNSS 19 (TRANSIT 19)", "OBJECT_ID": "1970-067A", "EPOCH": "2025-12-21T03:23:04.186752", "MEAN_MOTION": 13.51316689, "ECCENTRICITY": 0.01702322, "INCLINATION": 90.005, "RA_OF_ASC_NODE": 234.5397, "ARG_OF_PERICENTER": 268.7928, "MEAN_ANOMALY": 89.3717, "EPHEMERIS_TYPE": 0, "CLASSIFICATION_TYPE": "U", "NORAD_CAT_ID": 4507, "ELEMENT_SET_NO": 999, "REV_AT_EPOCH": 72335, "BSTAR": 0.00013582104, "MEAN_MOTION_DOT": 1.04e-06, "MEAN_MOTION_DDOT": 0}, "tle": {"line1": "1 04507U 70067A   25355.14102068  .00000104  00000+0  13582-3 0  9994", "line2": "2 04507  90.0050 234.5397 0170232 268.7928  89.3717 13.51316689723350"}}, "geometry": {"type": "Point", "coordinates": [54.547020755378966, 54.764567233328215]}}, {"type": "Feature", "properties": {"norad_id": 6909, "name": "NNSS 20 (TRANSIT 20)", "group": "nnss", "lat": 57.49290411751185, "lon": 74.69545316495987, "alt_km": 948.7401188307704, "timestamp": "2025-12-21T14:40:48.185113+00:00", "meta": {"OBJECT_NAME": "NNSS 20 (TRANSIT 20)", "OBJECT_ID": "1973-081A", "EPOCH": "2025-12-21T03:35:37.798656", "MEAN_MOTION": 13.7143837, "ECCENTRICITY": 0.01563802, "INCLINATION": 89.8562, "RA_OF_ASC_NODE": 254.9282, "ARG_OF_PERICENTER": 53.4084, "MEAN_ANOMALY": 308.1351, "EPHEMERIS_TYPE": 0, "CLASSIFICATION_TYPE": "U", "NORAD_CAT_ID": 6909, "ELEMENT_SET_NO": 999, "REV_AT_EPOCH": 80476, "BSTAR": 0.00023688419, "MEAN_MOTION_DOT": 2.44e-06, "MEAN_MOTION_DDOT": 0}, "tle": {"line1": "1 06909U 73081A   25355.14974304  .00000244  00000+0  23688-3 0  9994", "line2": "2 06909  89.8562 254.9282 0156380  53.4084 308.1351 13.71438370804766"}}, "geometry": {"type": "Point", "coordinates": [74.69545316495987, 57.49290411751185]}}, {"type": "Feature", "properties": {"norad_id": 10457, "name": "TRANSAT", "group": "nnss", "lat": 55.394933170604155, "lon": 78.79358684129289, "alt_km": 1077.144659392652, "timestamp": "2025-12-21T14:40:48.185124+00:00", "meta": {"OBJECT_NAME": "TRANSAT", "OBJECT_ID": "1977-106A", "EPOCH": "2025-12-21T04:01:21.737280", "MEAN_MOTION": 13.48944805, "ECCENTRICITY": 0.00261882, "INCLINATION": 89.6479, "RA_OF_ASC_NODE": 78.2987, "ARG_OF_PERICENTER": 165.4094, "MEAN_ANOMALY": 255.1866, "EPHEMERIS_TYPE": 0, "CLASSIFICATION_TYPE": "U", "NORAD_CAT_ID": 10457, "ELEMENT_SET_NO": 999, "REV_AT_EPOCH": 36857, "BSTAR": 0.00011868339, "MEAN_MOTION_DOT": 8.5e-07, "MEAN_MOTION_DDOT": 0}, "tle": {"line1": "1 10457U 77106A   25355.16761270  .00000085  00000+0  11868-3 0  9997", "line2": "2 10457  89.6479  78.2987 0026188 165.4094 255.1866 13.48944805368575"}}, "geometry": {"type": "Point", "coordinates": [78.79358684129289, 55.394933170604155]}}, {"type": "Feature", "properties": {"norad_id": 12458, "name": "NOVA 1", "group": "nnss", "lat": -38.88512221157407, "lon": -88.62136838885621, "alt_km": 1187.3947165269574, "timestamp": "2025-12-21T14:40:48.185135+00:00", "meta": {"OBJECT_NAME": "NOVA 1", "OBJECT_ID": "1981-044A", "EPOCH": "2025-12-21T01:45:26.265024", "MEAN_MOTION": 13.23279246, "ECCENTRICITY": 0.0015849, "INCLINATION": 89.8527, "RA_OF_ASC_NODE": 91.2674, "ARG_OF_PERICENTER": 83.5202, "MEAN_ANOMALY": 91.57, "EPHEMERIS_TYPE": 0, "CLASSIFICATION_TYPE": "U", "NORAD_CAT_ID": 12458, "ELEMENT_SET_NO": 999, "REV_AT_EPOCH": 15296, "BSTAR": 9.3150425e-05, "MEAN_MOTION_DOT": 4.9e-07, "MEAN_MOTION_DDOT": 0}, "tle": {"line1": "1 12458U 81044A   25355.07322066  .00000049  00000+0  93150-4 0  9997", "line2": "2 12458  89.8527  91.2674 0015849  83.5202  91.5700 13.23279246152961"}}, "geometry": {"type": "Point", "coordinates": [-88.62136838885621, -38.88512221157407]}}, {"type": "Feature", "properties": {"norad_id": 15362, "name": "NOVA 3", "group": "nnss", "lat": 84.11038046962983, "lon": 79.45479687806355, "alt_km": 1182.4061929372901, "timestamp": "2025-12-21T14:40:48.185146+00:00", "meta": {"OBJECT_NAME": "NOVA 3", "OBJECT_ID": "1984-110A", "EPOCH": "2025-12-21T07:18:51.929280", "MEAN_MOTION": 13.230456, "ECCENTRICITY": 0.00299857, "INCLINATION": 90.1221, "RA_OF_ASC_NODE": 80.6356, "ARG_OF_PERICENTER": 307.3194, "MEAN_ANOMALY": 115.6582, "EPHEMERIS_TYPE": 0, "CLASSIFICATION_TYPE": "U", "NORAD_CAT_ID": 15362, "ELEMENT_SET_NO": 999, "REV_AT_EPOCH": 98812, "BSTAR": 0.00016433945, "MEAN_MOTION_DOT": 7.7e-07, "MEAN_MOTION_DDOT": 0}, "tle": {"line1": "1 15362U 84110A   25355.30476770  .00000077  00000+0  16434-3 0  9999", "line2": "2 15362  90.1221  80.6356 0029985 307.3194 115.6582 13.23045600988122"}}, "geometry": {"type": "Point", "coordinates": [79.45479687806355, 84.11038046962983]}}, {"type": "Feature", "properties": {"norad_id": 15935, "name": "OSCAR 30", "group": "nnss", "lat": -41.075959868285075, "lon": -80.15211921573109, "alt_km": 1250.8975710455534, "timestamp": "2025-12-21T14:40:48.185157+00:00", "meta": {"OBJECT_NAME": "OSCAR 30", "OBJECT_ID": "1985-066A", "EPOCH": "2025-12-21T06:41:53.387232", "MEAN_MOTION": 13.36079593, "ECCENTRICITY": 0.01691297, "INCLINATION": 90.1655, "RA_OF_ASC_NODE": 99.9868, "ARG_OF_PERICENTER": 60.0583, "MEAN_ANOMALY": 1.5893, "EPHEMERIS_TYPE": 0, "CLASSIFICATION_TYPE": "U", "NORAD_CAT_ID": 15935, "ELEMENT_SET_NO": 999, "REV_AT_EPOCH": 96567, "BSTAR": 0.00014527963, "MEAN_MOTION_DOT": 9.1e-07, "MEAN_MOTION_DDOT": 0}, "tle": {"line1": "1 15935U 85066A   25355.27909013  .00000091  00000+0  14528-3 0  9991", "line2": "2 15935  90.1655  99.9868 0169129  60.0583   1.5893 13.36079593965675"}}, "geometry": {"type": "Point", "coordinates": [-80.15211921573109, -41.075959868285075]}}, {"type": "Feature", "properties": {"norad_id": 15936, "name": "OSCAR 24", "group": "nnss", "lat": -70.24769594239905, "lon": 92.96141307089077, "alt_km": 1222.3059586477802, "timestamp": "2025-12-21T14:40:48.185168+00:00", "meta": {"OBJECT_NAME": "OSCAR 24", "OBJECT_ID": "1985-066B", "EPOCH": "2025-12-21T06:11:02.071968", "MEAN_MOTION": 13.35936911, "ECCENTRICITY": 0.01702608, "INCLINATION": 90.1791, "RA_OF_ASC_NODE": 92.4561, "ARG_OF_PERICENTER": 66.5575, "MEAN_ANOMALY": 323.0621, "EPHEMERIS_TYPE": 0, "CLASSIFICATION_TYPE": "U", "NORAD_CAT_ID": 15936, "ELEMENT_SET_NO": 999, "REV_AT_EPOCH": 96757, "BSTAR": 0.00012482262, "MEAN_MOTION_DOT": 7.9e-07, "MEAN_MOTION_DDOT": 0}, "tle": {"line1": "1 15936U 85066B   25355.25766287  .00000079  00000+0  12482-3 0  9997", "line2": "2 15936  90.1791  92.4561 0170260  66.5575 323.0621 13.35936911967572"}}, "geometry": {"type": "Point", "coordinates": [92.96141307089077, -70.24769594239905]}}]}